[{"name":"SAUDISAT 5A","l1":"1 43831U 18102A   26183.74954017  .00006048  00000+0  22228-3 0  9994","l2":"2 43831  97.3058 245.0314 0011200  82.0529 278.1981 15.28210454418058","cat":"other"},{"name":"SAUDISAT 5B","l1":"1 43833U 18102C   26183.76580990  .00005897  00000+0  21514-3 0  9991","l2":"2 43833  97.3167 248.1453 0011925  83.8022 276.4576 15.28459279418174","cat":"other"},{"name":"GAOFEN-10R","l1":"1 44622U 19066A   26183.80689416  .00001369  00000+0  17505-3 0  9991","l2":"2 44622  98.0503 137.4999 0007193  84.8768 275.3266 14.83035264364693","cat":"other"},{"name":"CARTOSAT-3","l1":"1 44804U 19081A   26183.76701909  .00004747  00000+0  22795-3 0  9997","l2":"2 44804  97.4296 245.3830 0013392  99.2732 261.0018 15.19250293365834","cat":"science"},{"name":"GAOFEN-12 01","l1":"1 44819U 19082A   26183.76004905  .00000459  00000+0  66683-4 0  9997","l2":"2 44819  97.8103 189.7285 0001632  54.9883 305.1483 14.80471517356393","cat":"other"},{"name":"CSG-1","l1":"1 44873U 19092A   26183.78128322  .00000504  00000+0  69916-4 0  9993","l2":"2 44873  97.8891   7.1581 0001419  91.1007 269.0368 14.82157912353785","cat":"other"},{"name":"NEMO-HD","l1":"1 46277U 20061F   26183.74131098  .00011417  00000+0  24467-3 0  9997","l2":"2 46277  97.1909 245.5395 0001470  73.2833 286.8577 15.44912307324383","cat":"other"},{"name":"SENTINEL-6A","l1":"1 46984U 20086A   26183.77874693 -.00000045  00000+0  69192-4 0  9998","l2":"2 46984  66.0412 102.6696 0007832 269.9878  90.0240 12.80929978262326","cat":"science"},{"name":"CAS500-1","l1":"1 47932U 21022A   26183.79510627  .00007320  00000+0  34139-3 0  9993","l2":"2 47932  97.3882  78.7315 0003601 221.0371 139.0593 15.20150064293133","cat":"other"},{"name":"GAOFEN-12 02","l1":"1 48079U 21026A   26183.77278197  .00000416  00000+0  61563-4 0  9992","l2":"2 48079  97.9926 181.8899 0004920 166.8484 193.2857 14.80308353284068","cat":"other"},{"name":"PLEIADES NEO 3","l1":"1 48268U 21034A   26183.78561698  .00000145  00000+0  24994-4 0  9999","l2":"2 48268  97.8941 258.3276 0001384  89.4509 270.6862 14.81674016279964","cat":"science"},{"name":"PLEIADES NEO 4","l1":"1 49070U 21073E   26183.75183980  .00000176  00000+0  29037-4 0  9992","l2":"2 49070  97.8936 258.2905 0001303  87.2863 272.8499 14.81665461263673","cat":"science"},{"name":"LANDSAT 9","l1":"1 49260U 21088A   26183.64726542  .00000415  00000+0  10221-3 0  9994","l2":"2 49260  98.2275 253.6373 0001187  87.7642 272.3692 14.57108136253250","cat":"science"},{"name":"CSG-2","l1":"1 51444U 22008A   26183.81503137  .00001129  00000+0  14834-3 0  9993","l2":"2 51444  97.8883   7.1857 0001602  86.0247 274.1149 14.82158093238908","cat":"other"},{"name":"GAOFEN-12 03","l1":"1 52912U 22069A   26183.80542137  .00001069  00000+0  14786-3 0  9992","l2":"2 52912  97.8262  71.2813 0002475  85.5730 274.5765 14.80060023216923","cat":"other"},{"name":"SWOT","l1":"1 54754U 22173A   26183.77964279  .00000110  00000+0  75994-4 0  9990","l2":"2 54754  77.6102  14.2597 0000321  87.1879 272.9310 14.00171431181336","cat":"other"},{"name":"GAOFEN-12 04","l1":"1 57654U 23123A   26183.75499852  .00001116  00000+0  15530-3 0  9992","l2":"2 57654  97.9113 101.5435 0003933  75.2637 284.9010 14.79756269154938","cat":"other"},{"name":"PARS 1","l1":"1 59065U 24039Q   26183.78505230  .00012169  00000+0  25026-3 0  9999","l2":"2 59065  97.4833 165.1995 0011078  65.7173 294.5232 15.46056503131055","cat":"other"},{"name":"RESURS-P 4","l1":"1 59371U 24061A   26183.80672836  .00003449  00000+0  11331-3 0  9999","l2":"2 59371  97.2759 131.4344 0003041 107.5968 252.5606 15.32220541126156","cat":"other"},{"name":"LEGION 1","l1":"1 59625U 24081A   26183.73084385  .00003969  00000+0  20545-3 0  9995","l2":"2 59625  97.5014 261.4225 0008079 321.2536  38.8117 15.16773217119899","cat":"other"},{"name":"LEGION 2","l1":"1 59626U 24081B   26183.69507610  .00004591  00000+0  23717-3 0  9998","l2":"2 59626  97.5015 261.4843 0009864 283.3010  76.7123 15.16750761119892","cat":"other"},{"name":"ALOS-4 (DAICHI-4)","l1":"1 60182U 24123A   26183.71407866  .00001690  00000+0  23311-3 0  9996","l2":"2 60182  97.9220 280.6673 0001612  97.3773 262.7622 14.79475423108176","cat":"other"},{"name":"LEGION 3","l1":"1 60452U 24146A   26183.74760251  .00005110  00000+0  27797-3 0  9997","l2":"2 60452  45.0025 307.1044 0008826 270.1429  89.8438 15.15585574104385","cat":"other"},{"name":"LEGION 4","l1":"1 60453U 24146B   26183.75013589  .00004838  00000+0  25958-3 0  9997","l2":"2 60453  45.0025  38.9928 0011897  34.9546 325.2112 15.16158061103231","cat":"other"},{"name":"SENTINEL-2C","l1":"1 60989U 24157A   26183.69700561  .00000129  00000+0  65784-4 0  9990","l2":"2 60989  98.5687 258.2595 0000950  92.1264 268.0028 14.30812674 95209","cat":"science"},{"name":"IONOSFERA-M 1","l1":"1 61735U 24199A   26183.73580752  .00000082  00000+0  55997-4 0  9992","l2":"2 61735  98.7152  56.7425 0002210  89.7022 270.4409 14.22757256129917","cat":"other"},{"name":"IONOSFERA-M 2","l1":"1 61736U 24199B   26183.77006520  .00000086  00000+0  57814-4 0  9997","l2":"2 61736  98.7151  56.6868 0000404  52.6346 307.4869 14.22760625133042","cat":"other"},{"name":"PRSC-EO1","l1":"1 62725U 25012A   26183.75180867  .00008080  00000+0  40450-3 0  9995","l2":"2 62725  97.4219 255.9073 0005783 189.0544 171.0587 15.17644092 80557","cat":"other"},{"name":"BIOMASS","l1":"1 63772U 25090A   26183.78618444  .00001229  00000+0  22609-3 0  9998","l2":"2 63772  98.0749  10.8717 0001504  87.3842 272.7535 14.67359874 62979","cat":"other"},{"name":"GOSAT-GW (IBUKI GW)","l1":"1 64694U 25141A   26183.80370436  .00000033  00000+0  14244-4 0  9997","l2":"2 64694  98.0572 120.8669 0001436  85.4455 274.6913 14.67554232 54133","cat":"other"},{"name":"IONOSFERA-M 3","l1":"1 64876U 25155A   26183.80171939  .00000068  00000+0  50908-4 0  9996","l2":"2 64876  98.6039 145.3142 0001836 130.9929 229.1407 14.21489141 48629","cat":"other"}]