OBJECT_NAME,OBJECT_ID,EPOCH,MEAN_MOTION,ECCENTRICITY,INCLINATION,RA_OF_ASC_NODE,ARG_OF_PERICENTER,MEAN_ANOMALY,EPHEMERIS_TYPE,CLASSIFICATION_TYPE,NORAD_CAT_ID,ELEMENT_SET_NO,REV_AT_EPOCH,BSTAR,MEAN_MOTION_DOT,MEAN_MOTION_DDOT
SAUDISAT 5A,2018-102A,2026-07-02T17:59:20.270688,15.28210454,.00112,97.3058,245.0314,82.0529,278.1981,0,U,43831,999,41805,.22228E-3,.6048E-4,0
SAUDISAT 5B,2018-102C,2026-07-02T18:22:45.975360,15.28459279,.0011925,97.3167,248.1453,83.8022,276.4576,0,U,43833,999,41817,.21514E-3,.5897E-4,0
GAOFEN-10R,2019-066A,2026-07-02T19:21:55.655424,14.83035264,.0007193,98.0503,137.4999,84.8768,275.3266,0,U,44622,999,36469,.17505E-3,.1369E-4,0
CARTOSAT-3,2019-081A,2026-07-02T18:24:30.449376,15.19250293,.0013392,97.4296,245.3830,99.2732,261.0018,0,U,44804,999,36583,.22795E-3,.4747E-4,0
GAOFEN-12 01,2019-082A,2026-07-02T18:14:28.237920,14.80471517,.0001632,97.8103,189.7285,54.9883,305.1483,0,U,44819,999,35639,.66683E-4,.459E-5,0
CSG-1,2019-092A,2026-07-02T18:45:02.870208,14.82157912,.0001419,97.8891,7.1581,91.1007,269.0368,0,U,44873,999,35378,.69916E-4,.504E-5,0
NEMO-HD,2020-061F,2026-07-02T17:47:29.268672,15.44912307,.000147,97.1909,245.5395,73.2833,286.8577,0,U,46277,999,32438,.24467E-3,.11417E-3,0
SENTINEL-6A,2020-086A,2026-07-02T18:41:23.734752,12.80929978,.0007832,66.0412,102.6696,269.9878,90.0240,0,U,46984,999,26232,.69192E-4,-.45E-6,0
CAS500-1,2021-022A,2026-07-02T19:04:57.181728,15.20150064,.0003601,97.3882,78.7315,221.0371,139.0593,0,U,47932,999,29313,.34139E-3,.732E-4,0
GAOFEN-12 02,2021-026A,2026-07-02T18:32:48.362208,14.80308353,.000492,97.9926,181.8899,166.8484,193.2857,0,U,48079,999,28406,.61563E-4,.416E-5,0
PLEIADES NEO 3,2021-034A,2026-07-02T18:51:17.307072,14.81674016,.0001384,97.8941,258.3276,89.4509,270.6862,0,U,48268,999,27996,.24994E-4,.145E-5,0
PLEIADES NEO 4,2021-073E,2026-07-02T18:02:38.958720,14.81665461,.0001303,97.8936,258.2905,87.2863,272.8499,0,U,49070,999,26367,.29037E-4,.176E-5,0
LANDSAT 9,2021-088A,2026-07-02T15:32:03.732288,14.57108136,.0001187,98.2275,253.6373,87.7642,272.3692,0,U,49260,999,25325,.10221E-3,.415E-5,0
CSG-2,2022-008A,2026-07-02T19:33:38.710368,14.82158093,.0001602,97.8883,7.1857,86.0247,274.1149,0,U,51444,999,23890,.14834E-3,.1129E-4,0
GAOFEN-12 03,2022-069A,2026-07-02T19:19:48.406368,14.80060023,.0002475,97.8262,71.2813,85.5730,274.5765,0,U,52912,999,21692,.14786E-3,.1069E-4,0
SWOT,2022-173A,2026-07-02T18:42:41.137056,14.00171431,.0000321,77.6102,14.2597,87.1879,272.9310,0,U,54754,999,18133,.75994E-4,.11E-5,0
GAOFEN-12 04,2023-123A,2026-07-02T18:07:11.872128,14.79756269,.0003933,97.9113,101.5435,75.2637,284.9010,0,U,57654,999,15493,.1553E-3,.1116E-4,0
PARS 1,2024-039Q,2026-07-02T18:50:28.518720,15.46056503,.0011078,97.4833,165.1995,65.7173,294.5232,0,U,59065,999,13105,.25026E-3,.12169E-3,0
RESURS-P 4,2024-061A,2026-07-02T19:21:41.330304,15.32220541,.0003041,97.2759,131.4344,107.5968,252.5606,0,U,59371,999,12615,.11331E-3,.3449E-4,0
LEGION 1,2024-081A,2026-07-02T17:32:24.908640,15.16773217,.0008079,97.5014,261.4225,321.2536,38.8117,0,U,59625,999,11989,.20545E-3,.3969E-4,0
LEGION 2,2024-081B,2026-07-02T16:40:54.575040,15.16750761,.0009864,97.5015,261.4843,283.3010,76.7123,0,U,59626,999,11989,.23717E-3,.4591E-4,0
ALOS-4 (DAICHI-4),2024-123A,2026-07-02T17:08:16.396224,14.79475423,.0001612,97.9220,280.6673,97.3773,262.7622,0,U,60182,999,10817,.23311E-3,.169E-4,0
LEGION 3,2024-146A,2026-07-02T17:56:32.856864,15.15585574,.0008826,45.0025,307.1044,270.1429,89.8438,0,U,60452,999,10438,.27797E-3,.511E-4,0
LEGION 4,2024-146B,2026-07-02T18:00:11.740896,15.16158061,.0011897,45.0025,38.9928,34.9546,325.2112,0,U,60453,999,10323,.25958E-3,.4838E-4,0
SENTINEL-2C,2024-157A,2026-07-02T16:43:41.284704,14.30812674,.000095,98.5687,258.2595,92.1264,268.0028,0,U,60989,999,9520,.65784E-4,.129E-5,0
IONOSFERA-M 1,2024-199A,2026-07-02T17:39:33.769728,14.22757256,.000221,98.7152,56.7425,89.7022,270.4409,0,U,61735,999,12991,.55997E-4,.82E-6,0
IONOSFERA-M 2,2024-199B,2026-07-02T18:28:53.633280,14.22760625,.0000404,98.7151,56.6868,52.6346,307.4869,0,U,61736,999,13304,.57814E-4,.86E-6,0
PRSC-EO1,2025-012A,2026-07-02T18:02:36.269088,15.17644092,.0005783,97.4219,255.9073,189.0544,171.0587,0,U,62725,999,8055,.4045E-3,.808E-4,0
BIOMASS,2025-090A,2026-07-02T18:52:06.335616,14.67359874,.0001504,98.0749,10.8717,87.3842,272.7535,0,U,63772,999,6297,.22609E-3,.1229E-4,0
GOSAT-GW (IBUKI GW),2025-141A,2026-07-02T19:17:20.056704,14.67554232,.0001436,98.0572,120.8669,85.4455,274.6913,0,U,64694,999,5413,.14244E-4,.33E-6,0
IONOSFERA-M 3,2025-155A,2026-07-02T19:14:28.555296,14.21489141,.0001836,98.6039,145.3142,130.9929,229.1407,0,U,64876,999,4862,.50908E-4,.68E-6,0
